{
    "week": 289,
    "satellites": [
        {
            "Name": "GSAT0226 (GALILEO 31)",
            "Line1": "1 61183U 24167B   24296.69942685 -.00000016  00000+0  00000+0 0  9997",
            "Line2": "2 61183  55.3971 237.8515 0033025  97.7745 262.5897  1.71381419   581",
            "SatelliteNumber": "61183",
            "Classification": "U",
            "LaunchYear": "24",
            "LaunchNumber": "167",
            "PieceOfLaunch": "B",
            "EpochYear": "24",
            "EpochDay": 296.69942685,
            "FirstDerivativeMeanMotion": -1.6e-07,
            "SecondDerivativeMeanMotion": "00000+0",
            "BSTAR": "00000+0",
            "SetNumber": "999",
            "Inclination": 55.3971,
            "RAAN": 237.8515,
            "Eccentricity": 0.0033025,
            "ArgumentOfPerigee": 97.7745,
            "MeanAnomaly": 262.5897,
            "MeanMotion": 1.71381419,
            "RevolutionNumber": "58"
        }
    ]
}